NORAD_CAT_ID,OBJECT_NAME,OBJECT_TYPE,EPOCH,MEAN_MOTION,ECCENTRICITY,INCLINATION,RA_OF_ASC_NODE,ARG_OF_PERICENTER,MEAN_ANOMALY,BSTAR,MEAN_MOTION_DOT,MEAN_MOTION_DDOT,TLE_LINE0,TLE_LINE1,TLE_LINE2,SEMIMAJOR_AXIS,PERIOD,APOGEE,PERIGEE,DECAYED
52586.0,STARLINK-3910,PAYLOAD,2023-09-15 07:17:41,15.0885472,0.0001506,53.216,228.0432,87.8257,272.2907,0.00012627,1.723e-05,0.0,0 STARLINK-3910,1 52586U 22051BC  23258.30394881  .00001723  00000-0  12627-3 0  9996,2 52586  53.2160 228.0432 0001506  87.8257 272.2907 15.08854720 74757,6917.835,95.437,540.742,538.659,0.0
52586.0,STARLINK-3910,PAYLOAD,2023-09-15 23:11:33,15.08834541,0.0001616,53.2157,225.0705,88.7084,271.4094,0.00037973,5.76e-05,0.0,0 STARLINK-3910,1 52586U 22051BC  23258.96635620  .00005760  00000-0  37973-3 0  9993,2 52586  53.2157 225.0705 0001616  88.7084 271.4094 15.08834541 74929,6917.897,95.438,540.88,538.644,0.0
52586.0,STARLINK-3910,PAYLOAD,2023-09-16 07:08:28,15.08846642,0.0001595,53.216,223.5828,88.3717,271.7457,0.00044453,6.795e-05,0.0,0 STARLINK-3910,1 52586U 22051BC  23259.29754962  .00006795  00000-0  44453-3 0  9991,2 52586  53.2160 223.5828 0001595  88.3717 271.7457 15.08846642 74973,6917.86,95.437,540.828,538.622,0.0
52586.0,STARLINK-3910,PAYLOAD,2023-09-17 02:13:06,15.0885274,0.0001614,53.2159,220.0144,104.0572,256.06,7.1205e-05,8.46e-06,0.0,0 STARLINK-3910,1 52586U 22051BC  23260.09243086  .00000846  00000-0  71205-4 0  9998,2 52586  53.2159 220.0144 0001614 104.0572 256.0600 15.08852740 75097,6917.841,95.437,540.823,538.59,0.0
52586.0,STARLINK-3910,PAYLOAD,2023-09-17 06:59:14,15.08859877,0.000171,53.2165,219.1191,90.8576,269.2612,6.0203e-05,6.71e-06,0.0,0 STARLINK-3910,1 52586U 22051BC  23260.29114560  .00000671  00000-0  60203-4 0  9996,2 52586  53.2165 219.1191 0001710  90.8576 269.2612 15.08859877 75051,6917.82,95.436,540.868,538.502,0.0
52586.0,STARLINK-3910,PAYLOAD,2023-09-18 02:03:52,15.08840591,0.0001153,53.2162,215.5495,128.6899,231.4197,0.00016751,2.379e-05,0.0,0 STARLINK-3910,1 52586U 22051BC  23261.08602872  .00002379  00000-0  16751-3 0  9997,2 52586  53.2162 215.5495 0001153 128.6899 231.4197 15.08840591 75247,6917.879,95.438,540.541,538.946,0.0
52586.0,STARLINK-3910,PAYLOAD,2023-09-18 06:50:01,15.08854746,0.0001553,53.2161,214.6601,97.3822,262.7347,1.3902e-06,-2.66e-06,0.0,0 STARLINK-3910,1 52586U 22051BC  23261.28474325 -.00000266  00000-0  13902-5 0  9990,2 52586  53.2161 214.6601 0001553  97.3822 262.7347 15.08854746 75271,6917.835,95.437,540.775,538.626,0.0
52586.0,STARLINK-3910,PAYLOAD,2023-09-19 01:54:39,15.08845564,0.0001605,53.2153,211.0908,104.0843,256.0327,8.1734e-05,1.013e-05,0.0,0 STARLINK-3910,1 52586U 22051BC  23262.07962632  .00001013  00000-0  81734-4 0  9998,2 52586  53.2153 211.0908 0001605 104.0843 256.0327 15.08845564 75395,6917.863,95.437,540.839,538.618,0.0
52586.0,STARLINK-3910,PAYLOAD,2023-09-19 19:23:54,15.08840072,0.0001828,53.2153,207.8203,92.4064,267.7137,0.00011895,1.605e-05,0.0,0 STARLINK-3910,1 52586U 22051BC  23262.80826880  .00001605  00000-0  11895-3 0  9990,2 52586  53.2153 207.8203 0001828  92.4064 267.7137 15.08840072 75508,6917.88,95.438,541.01,538.481,0.0
52586.0,STARLINK-3910,PAYLOAD,2023-09-20 04:56:12,15.08852826,0.000156,53.2152,206.0384,98.4499,261.667,0.00018992,2.737e-05,0.0,0 STARLINK-3910,1 52586U 22051BC  23263.20569915  .00002737  00000-0  18992-3 0  9990,2 52586  53.2152 206.0384 0001560  98.4499 261.6670 15.08852826 75560,6917.841,95.437,540.785,538.627,0.0
52586.0,STARLINK-3910,PAYLOAD,2023-09-20 12:53:08,15.08841896,0.000168,53.2161,204.5486,85.6568,274.4616,2.4768e-05,1.06e-06,0.0,0 STARLINK-3910,1 52586U 22051BC  23263.53690417  .00000106  00000-0  24768-4 0  9995,2 52586  53.2161 204.5486 0001680  85.6568 274.4616 15.08841896 75617,6917.875,95.437,540.902,538.577,0.0
52586.0,STARLINK-3910,PAYLOAD,2023-09-21 01:36:14,15.08817417,0.0001437,53.2156,202.1725,91.7838,268.3318,-0.00043809,-7.249e-05,0.0,0 STARLINK-3910,1 52586U 22051BC  23264.06683614 -.00007249  00000-0 -43809-3 0  9998,2 52586  53.2156 202.1725 0001437  91.7838 268.3318 15.08817417 75690,6917.949,95.439,540.809,538.82,0.0
52586.0,STARLINK-3910,PAYLOAD,2023-09-21 04:47:01,15.08818092,0.0001683,53.2167,201.5826,108.4584,251.6591,-0.00030695,-5.167e-05,0.0,0 STARLINK-3910,1 52586U 22051BC  23264.19932000 -.00005167  00000-0 -30695-3 0  9994,2 52586  53.2167 201.5826 0001683 108.4584 251.6591 15.08818092 75647,6917.947,95.439,540.977,538.648,0.0
52586.0,STARLINK-3910,PAYLOAD,2023-09-22 04:37:47,15.08854619,0.0001327,53.2154,197.1182,98.6628,261.4515,0.00077918,0.00012139,0.0,0 STARLINK-3910,1 52586U 22051BC  23265.19291516  .00012139  00000-0  77918-3 0  9999,2 52586  53.2154 197.1182 0001327  98.6628 261.4515 15.08854619 75866,6917.836,95.437,540.619,538.783,0.0
52586.0,STARLINK-3910,PAYLOAD,2023-09-23 02:53:12,15.08810663,9.67e-05,53.2144,192.956,83.1001,277.0101,0.0011704,0.00018373,0.0,0 STARLINK-3910,1 52586U 22051BC  23266.12028629  .00018373  00000-0  11704-2 0  9992,2 52586  53.2144 192.9560 0000967  83.1001 277.0101 15.08810663 76003,6917.97,95.439,540.504,539.166,0.0
52586.0,STARLINK-3910,PAYLOAD,2023-09-23 04:28:36,15.08806989,9.79e-05,53.2145,192.6588,76.9458,283.1643,0.0015417,0.00024311,0.0,0 STARLINK-3910,1 52586U 22051BC  23266.18652813  .00024311  00000-0  15417-2 0  9990,2 52586  53.2145 192.6588 0000979  76.9458 283.1643 15.08806989 75947,6917.981,95.44,540.524,539.169,0.0
52586.0,STARLINK-3910,PAYLOAD,2023-09-24 04:19:23,15.08871,0.0001042,53.2144,188.1964,80.2849,279.8261,0.0020671,0.00032791,0.0,0 STARLINK-3910,1 52586U 22051BC  23267.18012872  .00032791  00000-0  20671-2 0  9995,2 52586  53.2144 188.1964 0001042  80.2849 279.8261 15.08871000 76167,6917.786,95.436,540.371,538.93,0.0
52586.0,STARLINK-3910,PAYLOAD,2023-09-24 18:37:50,15.08861365,6.57e-05,53.215,185.5192,17.0404,343.061,0.0011254,0.00017679,0.0,0 STARLINK-3910,1 52586U 22051BC  23267.77628422  .00017679  00000-0  11254-2 0  9999,2 52586  53.2150 185.5192 0000657  17.0404 343.0610 15.08861365 76259,6917.815,95.436,540.135,539.226,0.0
52586.0,STARLINK-3910,PAYLOAD,2023-09-25 00:59:23,15.08879584,0.0001342,53.2151,184.3297,58.3009,301.8114,0.0020755,0.00032934,0.0,0 STARLINK-3910,1 52586U 22051BC  23268.04124030  .00032934  00000-0  20755-2 0  9993,2 52586  53.2151 184.3297 0001342  58.3009 301.8114 15.08879584 76291,6917.759,95.435,540.553,538.696,0.0
52586.0,STARLINK-3910,PAYLOAD,2023-09-25 04:10:08,15.08904193,0.0001081,53.2151,183.7356,90.9065,269.2051,0.0032337,0.00051644,0.0,0 STARLINK-3910,1 52586U 22051BC  23268.17371428  .00051644  00000-0  32337-2 0  9990,2 52586  53.2151 183.7356 0001081  90.9065 269.2051 15.08904193 76319,6917.684,95.433,540.297,538.801,0.0
52586.0,STARLINK-3910,PAYLOAD,2023-09-25 12:07:04,15.08885426,0.0001333,53.2161,182.247,85.4424,274.672,0.0018543,0.00029383,0.0,0 STARLINK-3910,1 52586U 22051BC  23268.50491210  .00029383  00000-0  18543-2 0  9997,2 52586  53.2161 182.2470 0001333  85.4424 274.6720 15.08885426 76296,6917.742,95.435,540.529,538.684,0.0
52586.0,STARLINK-3910,PAYLOAD,2023-09-25 21:39:22,15.08878446,0.0001656,53.2162,180.4602,119.0526,241.0632,0.0014367,0.00022675,0.0,0 STARLINK-3910,1 52586U 22051BC  23268.90234497  .00022675  00000-0  14367-2 0  9990,2 52586  53.2162 180.4602 0001656 119.0526 241.0632 15.08878446 76350,6917.763,95.435,540.773,538.482,0.0
52586.0,STARLINK-3910,PAYLOAD,2023-09-26 00:50:08,15.08873609,0.0001432,53.2172,179.8646,118.278,241.8357,0.00049283,7.571e-05,0.0,0 STARLINK-3910,1 52586U 22051BC  23269.03482191  .00007571  00000-0  49283-3 0  9995,2 52586  53.2172 179.8646 0001432 118.2780 241.8357 15.08873609 76444,6917.778,95.435,540.633,538.652,0.0
52586.0,STARLINK-3910,PAYLOAD,2023-09-26 21:30:10,15.08831168,0.0001302,53.2149,176.0058,71.5116,288.6017,4.7703e-05,4.71e-06,0.0,0 STARLINK-3910,1 52586U 22051BC  23269.89595499  .00000471  00000-0  47703-4 0  9993,2 52586  53.2149 176.0058 0001302  71.5116 288.6017 15.08831168 76507,6917.907,95.438,540.673,538.872,0.0
52586.0,STARLINK-3910,PAYLOAD,2023-09-27 00:40:56,15.08831256,0.0001296,53.2153,175.409,89.0577,271.0564,-0.0002598,-4.419e-05,0.0,0 STARLINK-3910,1 52586U 22051BC  23270.02843573 -.00004419  00000-0 -25980-3 0  9999,2 52586  53.2153 175.4090 0001296  89.0577 271.0564 15.08831256 76598,6917.907,95.438,540.669,538.876,0.0
52586.0,STARLINK-3910,PAYLOAD,2023-09-27 10:13:16,15.0882753,0.0001345,53.2152,173.6245,88.3872,271.7274,-0.00021202,-3.659e-05,0.0,0 STARLINK-3910,1 52586U 22051BC  23270.42588081 -.00003659  00000-0 -21202-3 0  9991,2 52586  53.2152 173.6245 0001345  88.3872 271.7274 15.08827530 76588,6917.919,95.438,540.714,538.853,0.0
52586.0,STARLINK-3910,PAYLOAD,2023-09-27 22:56:22,15.08820051,0.0001462,53.2161,171.249,92.0629,268.053,-0.0001983,-3.441e-05,0.0,0 STARLINK-3910,1 52586U 22051BC  23270.95581277 -.00003441  00000-0 -19830-3 0  9992,2 52586  53.2161 171.2490 0001462  92.0629 268.0530 15.08820051 76738,6917.941,95.439,540.818,538.795,0.0
52586.0,STARLINK-3910,PAYLOAD,2023-09-28 18:00:59,15.08834539,0.0001703,53.2182,167.6837,105.9473,254.1707,0.00033381,5.028e-05,0.0,0 STARLINK-3910,1 52586U 22051BC  23271.75069198  .00005028  00000-0  33381-3 0  9992,2 52586  53.2182 167.6837 0001703 105.9473 254.1707 15.08834539 76855,6917.897,95.438,540.94,538.584,0.0
52586.0,STARLINK-3910,PAYLOAD,2023-09-28 21:11:45,15.08838573,0.0001749,53.2182,167.0898,110.7884,249.3295,0.00037556,5.694e-05,0.0,0 STARLINK-3910,1 52586U 22051BC  23271.88317050  .00005694  00000-0  37556-3 0  9996,2 52586  53.2182 167.0898 0001749 110.7884 249.3295 15.08838573 76801,6917.885,95.438,540.96,538.54,0.0
52586.0,STARLINK-3910,PAYLOAD,2023-09-29 03:33:17,15.08854009,0.000162,53.2168,165.8954,103.7645,256.3527,0.00048809,7.491e-05,0.0,0 STARLINK-3910,1 52586U 22051BC  23272.14812393  .00007491  00000-0  48809-3 0  9996,2 52586  53.2168 165.8954 0001620 103.7645 256.3527 15.08854009 76919,6917.838,95.437,540.823,538.582,0.0
